[{"OBJECT_NAME":"GEESAT-2 05","OBJECT_ID":"2024-023E","EPOCH":"2026-03-09T21:48:09.892512","MEAN_MOTION":14.82877169,"ECCENTRICITY":0.00107889,"INCLINATION":50.0044,"RA_OF_ASC_NODE":93.9515,"ARG_OF_PERICENTER":41.3902,"MEAN_ANOMALY":318.7852,"EPHEMERIS_TYPE":0,"CLASSIFICATION_TYPE":"U","NORAD_CAT_ID":58909,"ELEMENT_SET_NO":999,"REV_AT_EPOCH":11418,"BSTAR":0.00016431229,"MEAN_MOTION_DOT":1.12e-5,"MEAN_MOTION_DDOT":0},{"OBJECT_NAME":"SL-14 R\/B","OBJECT_ID":"1982-059B","EPOCH":"2026-03-09T21:50:13.047072","MEAN_MOTION":14.87168915,"ECCENTRICITY":0.0018414,"INCLINATION":82.5118,"RA_OF_ASC_NODE":20.8616,"ARG_OF_PERICENTER":25.4623,"MEAN_ANOMALY":334.7497,"EPHEMERIS_TYPE":0,"CLASSIFICATION_TYPE":"U","NORAD_CAT_ID":13272,"ELEMENT_SET_NO":999,"REV_AT_EPOCH":34397,"BSTAR":8.7882073e-5,"MEAN_MOTION_DOT":8.17e-6,"MEAN_MOTION_DDOT":0}]
